OBJECT_NAME,OBJECT_ID,EPOCH,MEAN_MOTION,ECCENTRICITY,INCLINATION,RA_OF_ASC_NODE,ARG_OF_PERICENTER,MEAN_ANOMALY,EPHEMERIS_TYPE,CLASSIFICATION_TYPE,NORAD_CAT_ID,ELEMENT_SET_NO,REV_AT_EPOCH,BSTAR,MEAN_MOTION_DOT,MEAN_MOTION_DDOT
STARLINK-34236,2025-144V,2026-06-05T05:22:29.348256,15.30237927,.0001371,53.1572,134.4592,96.5347,263.5810,0,U,64743,999,5311,.9782E-3,.28758E-3,0
STARLINK-34185,2025-144W,2026-06-05T15:47:25.730016,15.30226295,.00003137,53.1607,132.1871,105.4561,254.6475,0,U,64744,999,5318,.81556291E-3,.23893E-3,0
STARLINK-34581,2025-144X,2026-06-05T15:23:16.679328,15.30230172,.00019033,53.1585,132.7947,75.5035,284.6177,0,U,64745,999,5317,.10034196E-2,.29505E-3,0
STARLINK-34592,2025-144Y,2026-06-05T15:14:52.616544,15.30216315,.00001714,53.1593,119.9805,41.2314,318.8699,0,U,64746,999,5335,.11482999E-2,.33822E-3,0
STARLINK-34589,2025-144Z,2026-06-05T04:27:07.919712,15.30223810,.00014516,53.1581,122.0853,91.2384,268.8783,0,U,64747,999,5328,.12426361E-2,.36653E-3,0
STARLINK-34536,2025-144AA,2026-06-05T05:31:36.134112,15.30218316,.0001303,53.1573,134.4968,95.7704,264.3446,0,U,64748,999,5311,.95653E-3,.28094E-3,0
STARLINK-34595,2025-144AB,2026-06-05T05:33:07.291296,15.30202940,.0001424,53.1582,134.4992,81.7944,278.3218,0,U,64749,999,5311,.53394E-3,.15489E-3,0
STARLINK-34531,2025-144AC,2026-06-05T05:08:48.454944,15.30212207,.00013332,53.1588,134.4001,94.3342,265.7811,0,U,64750,999,5311,.83315964E-3,.24407E-3,0
STARLINK-33965,2025-147A,2026-06-05T09:05:25.421280,15.34464841,.00012909,53.1580,194.3006,54.5275,305.5848,0,U,64755,999,5223,.12835554E-2,.43331E-3,0
STARLINK-34371,2025-147B,2026-06-05T09:33:41.738400,15.31714542,.0001005,53.1563,195.1204,78.2559,281.8555,0,U,64756,999,5213,.59537156E-3,.18163E-3,0
STARLINK-34401,2025-147C,2026-06-05T14:20:11.895360,15.34384442,.00015628,53.1571,193.5252,92.1856,267.9326,0,U,64757,999,5215,.70511959E-3,.2351E-3,0
STARLINK-34593,2025-147D,2026-06-05T16:39:16.612128,15.34409093,.00012013,53.1577,192.7057,66.7680,293.3449,0,U,64758,999,5224,.48439694E-3,.1603E-3,0
STARLINK-34598,2025-147E,2026-06-05T16:27:16.950240,15.34384625,.00014341,53.1583,193.3559,147.9078,212.2012,0,U,64759,999,5218,.56149577E-3,.18633E-3,0
STARLINK-34235,2025-147F,2026-06-05T18:04:06.328992,15.34352006,.00014222,53.1576,193.0723,80.4308,279.6855,0,U,64760,999,5228,.20984041E-2,.71087E-3,0
STARLINK-34635,2025-147G,2026-06-05T09:59:58.825248,15.34394557,.00011876,53.1575,194.5256,124.7406,235.3709,0,U,64761,999,5219,.35666445E-3,.11691E-3,0
STARLINK-34638,2025-147H,2026-06-05T13:49:53.197824,15.34388229,.00010216,53.1578,193.3926,91.2309,268.8811,0,U,64762,999,5222,.65074476E-3,.21666E-3,0
STARLINK-34534,2025-147J,2026-06-05T14:26:13.245216,15.34400307,.00011578,53.1569,193.5470,85.5685,274.5450,0,U,64763,999,5222,.68625849E-3,.22881E-3,0
STARLINK-34261,2025-147K,2026-06-05T13:40:47.740800,15.34414918,.00011748,53.1582,193.3497,80.1374,279.9762,0,U,64764,999,5226,.10487315E-2,.3524E-3,0
STARLINK-34566,2025-147L,2026-06-05T09:23:37.302144,15.34400487,.00011479,53.1577,194.3658,84.1578,275.9555,0,U,64765,999,5219,.42798289E-3,.14111E-3,0
STARLINK-34645,2025-147M,2026-06-05T09:16:21.409824,15.30195324,.00012945,53.1568,195.7529,86.6008,273.5140,0,U,64766,999,5217,.66779344E-3,.19468E-3,0
STARLINK-34639,2025-147N,2026-06-05T14:14:05.969760,15.34404065,.00009652,53.1553,193.4909,89.8598,270.2515,0,U,64767,999,5217,.87676875E-3,.29367E-3,0
STARLINK-34609,2025-147P,2026-06-05T08:27:52.006464,15.30222524,.00010951,53.1559,185.6022,94.8842,265.2284,0,U,64768,999,5231,.7964657E-3,.2332E-3,0
STARLINK-34246,2025-147Q,2026-06-05T17:03:30.273984,15.34359817,.0001147,53.1561,192.8127,75.6727,284.4402,0,U,64769,999,5224,.15378736E-2,.51877E-3,0
STARLINK-34618,2025-147R,2026-06-05T16:36:15.011424,15.34394934,.00013296,53.1584,192.6910,65.8998,294.2144,0,U,64770,999,5217,.67923007E-3,.22638E-3,0
STARLINK-34541,2025-147S,2026-06-05T17:00:28.872864,15.34402442,.00010754,53.1574,192.7914,129.0010,231.1088,0,U,64771,999,5217,.79206134E-3,.26481E-3,0
STARLINK-34652,2025-147T,2026-06-05T12:28:10.463520,15.34394860,.0000941,53.1567,193.7430,89.2850,270.8261,0,U,64772,999,5221,.54667403E-3,.18136E-3,0
STARLINK-34612,2025-147U,2026-06-05T13:43:49.140192,15.34382701,.00010639,53.1586,193.3624,81.7803,278.3320,0,U,64773,999,5222,.87541104E-3,.293E-3,0
STARLINK-34621,2025-147V,2026-06-05T09:07:14.109024,15.30231105,.00021119,53.1579,195.7100,25.1701,334.9403,0,U,64774,999,5210,.72728733E-3,.21264E-3,0
STARLINK-34657,2025-147W,2026-06-05T14:17:07.624896,15.34401732,.00011203,53.1567,193.5057,98.0628,262.0502,0,U,64775,999,5222,.77063798E-3,.25752E-3,0
STARLINK-34637,2025-147X,2026-06-05T14:35:18.449088,15.34394513,.00012348,53.1569,193.5806,100.8853,259.2288,0,U,64776,999,5215,.70904962E-3,.23652E-3,0
